start=new Date('2022-01-24T00:00:00.000Z').valueOf();
sats=[{"OBJECT_ID":"2019-074AS","FILE":"3281027","EPOCH":"2022-01-23T18:50:20.302944","RCS_SIZE":"LARGE","APOAPSIS":"547.994","ELEMENT_SET_NO":"999","MEAN_ELEMENT_THEORY":"SGP4","MEAN_ANOMALY":"282.2705","DECAY_DATE":null,"GP_ID":"194469103","OBJECT_TYPE":"PAYLOAD","RA_OF_ASC_NODE":"106.8882","MEAN_MOTION_DDOT":"0.0000000000000","REV_AT_EPOCH":"12194","CLASSIFICATION_TYPE":"U","CENTER_NAME":"EARTH","COUNTRY_CODE":"US","MEAN_MOTION":"15.06404396","NORAD_CAT_ID":"44753","TLE_LINE2":"2 44753  53.0530 106.8882 0001147  77.8412 282.2705 15.06404396121947","OBJECT_NAME":"STARLINK-1048","SITE":"AFETR","MEAN_MOTION_DOT":"0.00002710","INCLINATION":"53.0530","LAUNCH_DATE":"2019-11-11","SEMIMAJOR_AXIS":"6925.335","EPHEMERIS_TYPE":"0","TLE_LINE1":"1 44753U 19074AS  22023.78495721  .00002710  00000-0  20075-3 0  9993","ARG_OF_PERICENTER":"77.8412","PERIOD":"95.592","BSTAR":"0.00020075000000","PERIAPSIS":"546.406","REF_FRAME":"TEME","ECCENTRICITY":"0.00011470","TIME_SYSTEM":"UTC"},{"TIME_SYSTEM":"UTC","REF_FRAME":"TEME","ECCENTRICITY":"0.00012230","PERIAPSIS":"546.427","PERIOD":"95.593","BSTAR":"-0.00005981200000","TLE_LINE1":"1 44754U 19074AT  22023.72231097 -.00001172  00000-0 -59812-4 0  9997","ARG_OF_PERICENTER":"85.9504","EPHEMERIS_TYPE":"0","SEMIMAJOR_AXIS":"6925.409","LAUNCH_DATE":"2019-11-11","INCLINATION":"53.0553","MEAN_MOTION_DOT":"-0.00001172","SITE":"AFETR","OBJECT_NAME":"STARLINK-1049","TLE_LINE2":"2 44754  53.0553 107.1775 0001223  85.9504 274.1625 15.06380374121934","MEAN_MOTION":"15.06380374","COUNTRY_CODE":"US","NORAD_CAT_ID":"44754","CENTER_NAME":"EARTH","CLASSIFICATION_TYPE":"U","MEAN_MOTION_DDOT":"0.0000000000000","REV_AT_EPOCH":"12193","OBJECT_TYPE":"PAYLOAD","RA_OF_ASC_NODE":"107.1775","DECAY_DATE":null,"GP_ID":"194469105","MEAN_ANOMALY":"274.1625","APOAPSIS":"548.121","RCS_SIZE":"LARGE","EPOCH":"2022-01-23T17:20:07.667808","ELEMENT_SET_NO":"999","MEAN_ELEMENT_THEORY":"SGP4","OBJECT_ID":"2019-074AT","FILE":"3281027"},{"MEAN_ANOMALY":"317.0856","RCS_SIZE":"LARGE","ELEMENT_SET_NO":"999","APOAPSIS":"451.238","EPOCH":"2022-01-23T19:30:23.693472","MEAN_ELEMENT_THEORY":"SGP4","OBJECT_ID":"2019-074AU","FILE":"3280962","MEAN_MOTION_DDOT":"0.0000000000000","REV_AT_EPOCH":"12142","OBJECT_TYPE":"PAYLOAD","RA_OF_ASC_NODE":"145.0749","DECAY_DATE":null,"GP_ID":"194467788","MEAN_MOTION":"15.38727616","COUNTRY_CODE":"US","NORAD_CAT_ID":"44755","CLASSIFICATION_TYPE":"U","CENTER_NAME":"EARTH","SITE":"AFETR","OBJECT_NAME":"STARLINK-1050","TLE_LINE2":"2 44755  53.0458 145.0749 0001999  43.0303 317.0856 15.38727616121429","INCLINATION":"53.0458","MEAN_MOTION_DOT":"0.00555103","TLE_LINE1":"1 44755U 19074AU  22023.81277423  .00555103  00000-0  13283-1 0  9996","ARG_OF_PERICENTER":"43.0303","EPHEMERIS_TYPE":"0","SEMIMAJOR_AXIS":"6828.008","LAUNCH_DATE":"2019-11-11","PERIAPSIS":"448.508","PERIOD":"93.584","BSTAR":"0.01328300000000","TIME_SYSTEM":"UTC","REF_FRAME":"TEME","ECCENTRICITY":"0.00019990"},{"TLE_LINE2":"2 44757  53.0563 127.4597 0001254  82.8262 277.2870 15.06391931121641","OBJECT_NAME":"STARLINK-1052","SITE":"AFETR","CLASSIFICATION_TYPE":"U","CENTER_NAME":"EARTH","MEAN_MOTION":"15.06391931","COUNTRY_CODE":"US","NORAD_CAT_ID":"44757","DECAY_DATE":null,"GP_ID":"194471757","OBJECT_TYPE":"PAYLOAD","RA_OF_ASC_NODE":"127.4597","MEAN_MOTION_DDOT":"0.0000000000000","REV_AT_EPOCH":"12164","OBJECT_ID":"2019-074AW","FILE":"3281129","RCS_SIZE":"LARGE","APOAPSIS":"548.107","ELEMENT_SET_NO":"999","EPOCH":"2022-01-23T15:47:13.709184","MEAN_ELEMENT_THEORY":"SGP4","MEAN_ANOMALY":"277.2870","REF_FRAME":"TEME","ECCENTRICITY":"0.00012540","TIME_SYSTEM":"UTC","PERIOD":"95.593","BSTAR":"0.00010604000000","PERIAPSIS":"546.370","LAUNCH_DATE":"2019-11-11","SEMIMAJOR_AXIS":"6925.373","EPHEMERIS_TYPE":"0","TLE_LINE1":"1 44757U 19074AW  22023.65779756  .00001298  00000-0  10604-3 0  9993","ARG_OF_PERICENTER":"82.8262","MEAN_MOTION_DOT":"0.00001298","INCLINATION":"53.0563"},{"TIME_SYSTEM":"UTC","REF_FRAME":"TEME","ECCENTRICITY":"0.00015500","PERIAPSIS":"546.143","PERIOD":"95.592","BSTAR":"0.00002467300000","TLE_LINE1":"1 44758U 19074AX  22023.59971736  .00000086  00000-0  24673-4 0  9995","ARG_OF_PERICENTER":"75.7170","EPHEMERIS_TYPE":"0","SEMIMAJOR_AXIS":"6925.352","LAUNCH_DATE":"2019-11-11","INCLINATION":"53.0554","MEAN_MOTION_DOT":"0.00000086","SITE":"AFETR","OBJECT_NAME":"STARLINK-1053","TLE_LINE2":"2 44758  53.0554 147.7164 0001550  75.7170 284.3991 15.06398983121192","MEAN_MOTION":"15.06398983","COUNTRY_CODE":"US","NORAD_CAT_ID":"44758","CENTER_NAME":"EARTH","CLASSIFICATION_TYPE":"U","MEAN_MOTION_DDOT":"0.0000000000000","REV_AT_EPOCH":"12119","OBJECT_TYPE":"PAYLOAD","RA_OF_ASC_NODE":"147.7164","DECAY_DATE":null,"GP_ID":"194461815","MEAN_ANOMALY":"284.3991","RCS_SIZE":"LARGE","APOAPSIS":"548.290","EPOCH":"2022-01-23T14:23:35.579904","ELEMENT_SET_NO":"999","MEAN_ELEMENT_THEORY":"SGP4","OBJECT_ID":"2019-074AX","FILE":"3280923"},{"PERIAPSIS":"546.280","BSTAR":"0.00018180000000","PERIOD":"95.592","TIME_SYSTEM":"UTC","ECCENTRICITY":"0.00013450","REF_FRAME":"TEME","INCLINATION":"53.0548","MEAN_MOTION_DOT":"0.00002428","EPHEMERIS_TYPE":"0","ARG_OF_PERICENTER":"82.9505","TLE_LINE1":"1 44759U 19074AY  22023.58960180  .00002428  00000-0  18180-3 0  9993","LAUNCH_DATE":"2019-11-11","SEMIMAJOR_AXIS":"6925.346","NORAD_CAT_ID":"44759","COUNTRY_CODE":"US","MEAN_MOTION":"15.06400801","CENTER_NAME":"EARTH","CLASSIFICATION_TYPE":"U","OBJECT_NAME":"STARLINK-1054","SITE":"AFETR","TLE_LINE2":"2 44759  53.0548 147.7772 0001345  82.9505 277.1637 15.06400801118832","MEAN_ANOMALY":"277.1637","FILE":"3280923","OBJECT_ID":"2019-074AY","MEAN_ELEMENT_THEORY":"SGP4","RCS_SIZE":"LARGE","APOAPSIS":"548.143","ELEMENT_SET_NO":"999","EPOCH":"2022-01-23T14:09:01.595520","REV_AT_EPOCH":"11883","MEAN_MOTION_DDOT":"0.0000000000000","GP_ID":"194462067","DECAY_DATE":null,"RA_OF_ASC_NODE":"147.7772","OBJECT_TYPE":"PAYLOAD"},{"INCLINATION":"53.0547","MEAN_MOTION_DOT":"0.00001174","EPHEMERIS_TYPE":"0","TLE_LINE1":"1 44760U 19074AZ  22023.77390215  .00001174  00000-0  97707-4 0  9992","ARG_OF_PERICENTER":"75.7518","LAUNCH_DATE":"2019-11-11","SEMIMAJOR_AXIS":"6925.355","PERIAPSIS":"546.300","PERIOD":"95.592","BSTAR":"0.00009770700000","TIME_SYSTEM":"UTC","REF_FRAME":"TEME","ECCENTRICITY":"0.00013290","MEAN_ANOMALY":"284.3618","OBJECT_ID":"2019-074AZ","FILE":"3281158","APOAPSIS":"548.141","RCS_SIZE":"LARGE","ELEMENT_SET_NO":"999","EPOCH":"2022-01-23T18:34:25.145760","MEAN_ELEMENT_THEORY":"SGP4","MEAN_MOTION_DDOT":"0.0000000000000","REV_AT_EPOCH":"12139","DECAY_DATE":null,"GP_ID":"194472290","OBJECT_TYPE":"PAYLOAD","RA_OF_ASC_NODE":"146.9303","MEAN_MOTION":"15.06397856","COUNTRY_CODE":"US","NORAD_CAT_ID":"44760","CENTER_NAME":"EARTH","CLASSIFICATION_TYPE":"U","OBJECT_NAME":"STARLINK-1055","SITE":"AFETR","TLE_LINE2":"2 44760  53.0547 146.9303 0001329  75.7518 284.3618 15.06397856121399"},{"ECCENTRICITY":"0.00016160","REF_FRAME":"TEME","TIME_SYSTEM":"UTC","BSTAR":"0.00020540000000","PERIOD":"95.592","PERIAPSIS":"546.104","LAUNCH_DATE":"2019-11-11","SEMIMAJOR_AXIS":"6925.358","EPHEMERIS_TYPE":"0","ARG_OF_PERICENTER":"74.3962","TLE_LINE1":"1 44761U 19074BA  22023.78496372  .00002779  00000-0  20540-3 0  9997","MEAN_MOTION_DOT":"0.00002779","INCLINATION":"53.0540","TLE_LINE2":"2 44761  53.0540 146.8878 0001616  74.3962 285.7205 15.06396768121394","OBJECT_NAME":"STARLINK-1056","SITE":"AFETR","CENTER_NAME":"EARTH","CLASSIFICATION_TYPE":"U","NORAD_CAT_ID":"44761","COUNTRY_CODE":"US","MEAN_MOTION":"15.06396768","GP_ID":"194471758","DECAY_DATE":null,"RA_OF_ASC_NODE":"146.8878","OBJECT_TYPE":"PAYLOAD","REV_AT_EPOCH":"12139","MEAN_MOTION_DDOT":"0.0000000000000","FILE":"3281129","OBJECT_ID":"2019-074BA","MEAN_ELEMENT_THEORY":"SGP4","APOAPSIS":"548.343","RCS_SIZE":"LARGE","ELEMENT_SET_NO":"999","EPOCH":"2022-01-23T18:50:20.865408","MEAN_ANOMALY":"285.7205"},{"CLASSIFICATION_TYPE":"U","CENTER_NAME":"EARTH","COUNTRY_CODE":"US","MEAN_MOTION":"15.06401119","NORAD_CAT_ID":"44762","TLE_LINE2":"2 44762  53.0534 126.8707 0001330  79.3085 280.8054 15.06401119121666","OBJECT_NAME":"STARLINK-1057","SITE":"AFETR","OBJECT_ID":"2019-074BB","FILE":"3281129","ELEMENT_SET_NO":"999","RCS_SIZE":"LARGE","APOAPSIS":"548.131","EPOCH":"2022-01-23T18:52:59.712672","MEAN_ELEMENT_THEORY":"SGP4","MEAN_ANOMALY":"280.8054","DECAY_DATE":null,"GP_ID":"194472259","OBJECT_TYPE":"PAYLOAD","RA_OF_ASC_NODE":"126.8707","MEAN_MOTION_DDOT":"0.0000000000000","REV_AT_EPOCH":"12166","PERIOD":"95.592","BSTAR":"0.00023918000000","PERIAPSIS":"546.289","REF_FRAME":"TEME","ECCENTRICITY":"0.00013300","TIME_SYSTEM":"UTC","MEAN_MOTION_DOT":"0.00003283","INCLINATION":"53.0534","LAUNCH_DATE":"2019-11-11","SEMIMAJOR_AXIS":"6925.345","EPHEMERIS_TYPE":"0","TLE_LINE1":"1 44762U 19074BB  22023.78680223  .00003283  00000-0  23918-3 0  9991","ARG_OF_PERICENTER":"79.3085"},{"PERIOD":"95.593","BSTAR":"0.00002012300000","PERIAPSIS":"546.443","REF_FRAME":"TEME","ECCENTRICITY":"0.00011650","TIME_SYSTEM":"UTC","MEAN_MOTION_DOT":"0.00000018","INCLINATION":"53.0546","LAUNCH_DATE":"2019-11-11","SEMIMAJOR_AXIS":"6925.385","EPHEMERIS_TYPE":"0","TLE_LINE1":"1 44763U 19074BC  22023.60804563  .00000018  00000-0  20123-4 0  9997","ARG_OF_PERICENTER":"69.8814","CENTER_NAME":"EARTH","CLASSIFICATION_TYPE":"U","MEAN_MOTION":"15.06388148","COUNTRY_CODE":"US","NORAD_CAT_ID":"44763","TLE_LINE2":"2 44763  53.0546 147.6917 0001165  69.8814 290.2301 15.06388148121198","OBJECT_NAME":"STARLINK-1058","SITE":"AFETR","OBJECT_ID":"2019-074BC","FILE":"3280923","APOAPSIS":"548.057","RCS_SIZE":"LARGE","ELEMENT_SET_NO":"999","EPOCH":"2022-01-23T14:35:35.142432","MEAN_ELEMENT_THEORY":"SGP4","MEAN_ANOMALY":"290.2301","DECAY_DATE":null,"GP_ID":"194462567","OBJECT_TYPE":"PAYLOAD","RA_OF_ASC_NODE":"147.6917","MEAN_MOTION_DDOT":"0.0000000000000","REV_AT_EPOCH":"12119"}];
